NOAA 15                 
1 25338U 98030A   24333.13468261  .00000524  00000+0  23399-3 0  9996
2 25338  98.5548 356.7516 0009869 199.8972 160.1825 14.26808373380817
DMSP 5D-3 F16 (USA 172) 
1 28054U 03048A   24333.16542003  .00000499  00000+0  28574-3 0  9990
2 28054  99.0206 341.1989 0006636 315.2897 134.2863 14.14211471 89457
NOAA 18                 
1 28654U 05018A   24333.09785410  .00000540  00000+0  31064-3 0  9993
2 28654  98.8626  48.6147 0013463 321.3543  38.6665 14.13434135  6418
METEOSAT-9 (MSG-2)      
1 28912U 05049B   24331.84702219  .00000144  00000+0  00000+0 0  9993
2 28912   8.0635  59.4636 0001814 203.9464 153.5423  1.00276594  1313
EWS-G1 (GOES 13)        
1 29155U 06018A   24332.83379538 -.00000200  00000+0  00000+0 0  9998
2 29155   3.0533  83.3020 0063770 256.7899 195.7396  0.98834304 37653
DMSP 5D-3 F17 (USA 191) 
1 29522U 06050A   24333.14469351  .00000550  00000+0  30813-3 0  9996
2 29522  98.7426 340.3514 0009259 228.7579 131.2797 14.14675663932370
FENGYUN 3A              
1 32958U 08026A   24332.66972095  .00000572  00000+0  29287-3 0  9995
2 32958  98.6251 275.2184 0008218 328.3447  31.7234 14.19291370855037
NOAA 19                 
1 33591U 09005A   24333.14407458  .00000499  00000+0  29060-3 0  9994
2 33591  99.0268  30.5213 0013765 186.2810 173.8191 14.13212187814787
GOES 14                 
1 35491U 09033A   24332.63598152 -.00000041  00000+0  00000+0 0  9994
2 35491   0.2101  91.7815 0003065 118.0441 337.6404  1.00273227   913
DMSP 5D-3 F18 (USA 210) 
1 35951U 09057A   24333.18691127  .00000710  00000+0  39377-3 0  9993
2 35951  98.8360 306.5273 0012181  61.9434 298.2969 14.14400032779541
EWS-G2 (GOES 15)        
1 36411U 10008A   24333.09855838  .00000063  00000+0  00000+0 0  9992
2 36411   0.1728 272.8581 0006384 333.8540 277.8584  1.00268666 53953
COMS 1                  
1 36744U 10032A   24332.82588925 -.00000319  00000+0  00000+0 0  9993
2 36744   3.3667  82.7452 0000650 171.2936 238.6870  1.00271182 45419
FENGYUN 3B              
1 37214U 10059A   24333.24662289  .00000391  00000+0  22700-3 0  9992
2 37214  99.0393   3.5201 0021965 351.6576 120.4139 14.14630199727441
SUOMI NPP               
1 37849U 11061A   24333.05995681  .00000324  00000+0  17480-3 0  9999
2 37849  98.7383 268.6708 0002004 112.6111 247.5277 14.19506012678113
METEOSAT-10 (MSG-3)     
1 38552U 12035B   24332.65752789  .00000021  00000+0  00000+0 0  9998
2 38552   3.3392  61.7805 0001479 238.6930   3.5680  1.00277558 45178
METOP-B                 
1 38771U 12049A   24333.10607252  .00000428  00000+0  21502-3 0  9996
2 38771  98.6072  26.4791 0000946  79.1242 281.0042 14.21595755632836
INSAT-3D                
1 39216U 13038B   24332.58729877 -.00000315  00000+0  00000+0 0  9991
2 39216   0.4565  90.6148 0002008 166.1606 151.1273  1.00273186 41392
FENGYUN 3C              
1 39260U 13052A   24333.21076265  .00000364  00000+0  20397-3 0  9991
2 39260  98.4392 324.2182 0010444 208.8713 151.1886 14.16353127578543
METEOR-M 2              
1 40069U 14037A   24333.15708718  .00000503  00000+0  25073-3 0  9993
2 40069  98.4504 320.1951 0004703 236.1965 123.8765 14.21148386538914
HIMAWARI-8              
1 40267U 14060A   24332.89982458 -.00000251  00000+0  00000+0 0  9994
2 40267   0.0246  70.3784 0001008 195.9799 265.5010  1.00266103 37187
FENGYUN 2G              
1 40367U 14090A   24332.89165781 -.00000275  00000+0  00000+0 0  9996
2 40367   4.1964  79.6472 0002119 189.4589 218.6643  1.00265299 36326
METEOSAT-11 (MSG-4)     
1 40732U 15034A   24332.87376042  .00000090  00000+0  00000+0 0  9997
2 40732   1.7850  71.4659 0001477 190.0230 129.7860  1.00278301  1539
ELEKTRO-L 2             
1 41105U 15074A   24332.65466083 -.00000092  00000+0  00000+0 0  9990
2 41105   5.2582  77.4732 0003746 188.5623  22.2415  1.00272604 32821
INSAT-3DR               
1 41752U 16054A   24331.81462617 -.00000056  00000+0  00000+0 0  9993
2 41752   0.1505  91.9030 0014035 176.1726 165.4455  1.00272827 30122
HIMAWARI-9              
1 41836U 16064A   24332.89982458 -.00000249  00000+0  00000+0 0  9990
2 41836   0.0108  95.2292 0001082 146.3797 290.4078  1.00272034 29628
GOES 16                 
1 41866U 16071A   24332.85699248 -.00000223  00000+0  00000+0 0  9991
2 41866   0.0264 255.1769 0001146  51.4321 353.9854  1.00272516 29420
FENGYUN 4A              
1 41882U 16077A   24332.91924531 -.00000171  00000+0  00000+0 0  9990
2 41882   0.8743  85.8258 0009436 338.5142  60.3459  1.00268355 29256
CYGFM05                 
1 41884U 16078A   24332.44575124  .00021129  00000+0  64270-3 0  9999
2 41884  34.9639 343.4215 0011943 244.9880 114.9597 15.33046385441098
CYGFM04                 
1 41885U 16078B   24332.39404247  .00022564  00000+0  66254-3 0  9999
2 41885  34.9385 325.9901 0011002 259.6455 100.3022 15.34157877441194
CYGFM02                 
1 41886U 16078C   24333.15725819  .00023952  00000+0  68618-3 0  9994
2 41886  34.9476 322.8546 0013638 259.8816 100.0363 15.34888804441474
CYGFM01                 
1 41887U 16078D   24332.45221218  .00020798  00000+0  63799-3 0  9991
2 41887  34.9472 347.4248 0012377 229.9104 130.0528 15.32775052441025
CYGFM08                 
1 41888U 16078E   24333.14302881  .00022337  00000+0  65893-3 0  9993
2 41888  34.9498 329.5778 0013781 259.0299 100.8868 15.33979330441356
CYGFM07                 
1 41890U 16078G   24333.14689120  .00023203  00000+0  67595-3 0  9994
2 41890  34.9517 320.4595 0011550 272.7119  87.2276 15.34396067441478
CYGFM03                 
1 41891U 16078H   24333.12877433  .00022176  00000+0  64951-3 0  9990
2 41891  34.9471 321.9128 0010617 258.0866 101.8661 15.34244023441458
FENGYUN 3D              
1 43010U 17072A   24333.12653095  .00000398  00000+0  21051-3 0  9992
2 43010  98.9347 288.9266 0000865 186.9049 173.2115 14.19506963364677
NOAA 20 (JPSS-1)        
1 43013U 17073A   24333.14712625  .00000305  00000+0  16537-3 0  9994
2 43013  98.7225 268.4102 0002351  91.1436 269.0010 14.19575737364161
GOES 17                 
1 43226U 18022A   24332.85099774 -.00000065  00000+0  00000+0 0  9993
2 43226   0.0123 124.2725 0003225 128.1719  16.4835  1.00272370 24745
FENGYUN 2H              
1 43491U 18050A   24333.10203361 -.00000103  00000+0  00000+0 0  9999
2 43491   1.5674  85.6912 0001107 151.3748 306.3282  1.00275072 23839
METOP-C                 
1 43689U 18087A   24333.14704556  .00000399  00000+0  20236-3 0  9997
2 43689  98.7038  30.3327 0001235  30.1092 330.0156 14.21479244314410
GEO-KOMPSAT-2A          
1 43823U 18100A   24332.96884578 -.00000318  00000+0  00000+0 0  9990
2 43823   0.0518 106.5944 0000722  11.0821  66.7510  1.00270091 21984
METEOR-M2 2             
1 44387U 19038A   24333.15102391  .00000501  00000+0  23780-3 0  9992
2 44387  98.8502 303.2165 0001067 154.8724 205.2506 14.24074307280726
ARKTIKA-M 1             
1 47719U 21016A   24331.25575036  .00000143  00000+0  00000+0 0  9990
2 47719  63.1351 132.8367 7004635 268.4853  17.5000  2.00606846 27396
FENGYUN 3E              
1 49008U 21062A   24333.12640538  .00000133  00000+0  83624-4 0  9999
2 49008  98.7383 332.2637 0000563 302.8556  57.2566 14.19817881176250
GOES 18                 
1 51850U 22021A   24333.05911462  .00000122  00000+0  00000+0 0  9992
2 51850   0.0045  68.4117 0000447 239.5279   3.8096  1.00272278 10128
NOAA 21 (JPSS-2)        
1 54234U 22150A   24333.11445547  .00000371  00000+0  19682-3 0  9993
2 54234  98.7078 268.9874 0002093  51.5009 308.6355 14.19556673106236
METEOSAT-12 (MTG-I1)    
1 54743U 22170C   24333.08622133  .00000019  00000+0  00000+0 0  9993
2 54743   0.6211  42.7162 0000988 180.6978 234.7325  1.00273869  7291
TIANMU-1 03             
1 55973U 23039A   24333.16061921  .00020709  00000+0  75210-3 0  9992
2 55973  97.4815 123.5491 0004045 332.3040  27.7983 15.28319567 93845
TIANMU-1 04             
1 55974U 23039B   24333.13182121  .00020124  00000+0  72764-3 0  9998
2 55974  97.4741 122.9430 0005008 326.2994  33.7927 15.28465621 93837
TIANMU-1 05             
1 55975U 23039C   24333.12804729  .00020645  00000+0  74997-3 0  9991
2 55975  97.4787 123.3414 0004016 352.7071   7.4110 15.28311155 93826
TIANMU-1 06             
1 55976U 23039D   24333.15397049  .00020498  00000+0  73881-3 0  9994
2 55976  97.4802 123.5686 0004435 349.3347  10.7798 15.28569543 93837
METEOR-M2 3             
1 57166U 23091A   24333.12146292  .00000122  00000+0  72426-4 0  9991
2 57166  98.6921  26.1510 0004340  29.2882 330.8540 14.23955177 73950
TIANMU-1 07             
1 57399U 23101A   24333.14103240  .00012622  00000+0  57152-3 0  9995
2 57399  97.3426  25.8865 0004136 356.1694   3.9510 15.21007048 75310
TIANMU-1 08             
1 57400U 23101B   24333.10909685  .00013234  00000+0  59839-3 0  9995
2 57400  97.3413  25.7078 0006433 353.2075   6.9073 15.21034518 75305
TIANMU-1 09             
1 57401U 23101C   24333.15842959  .00013614  00000+0  61624-3 0  9998
2 57401  97.3369  25.5002 0006122 350.9612   9.1513 15.20990978 75312
TIANMU-1 10             
1 57402U 23101D   24333.12581398  .00012929  00000+0  58506-3 0  9996
2 57402  97.3449  25.9146 0008158 346.0078  14.0931 15.21001048 75308
FENGYUN 3F              
1 57490U 23111A   24333.14035960  .00000299  00000+0  16126-3 0  9994
2 57490  98.7531  40.6240 0000989  47.4394 312.6866 14.19945663 68535
ARKTIKA-M 2             
1 58584U 23198A   24331.98897136  .00000119  00000+0  00000+0 0  9996
2 58584  63.2380 216.7866 6919222 269.5205  17.8799  2.00592975  6949
TIANMU-1 11             
1 58645U 23205A   24333.14216180  .00011874  00000+0  57750-3 0  9995
2 58645  97.3909 354.2483 0010416 184.8851 175.2283 15.18510716 51361
TIANMU-1 12             
1 58646U 23205B   24333.15880396  .00012004  00000+0  58485-3 0  9995
2 58646  97.3893 354.1619 0008649 175.5508 184.5805 15.18458843 51359
TIANMU-1 13             
1 58647U 23205C   24333.12582008  .00011387  00000+0  55463-3 0  9998
2 58647  97.3926 354.1869 0009684 156.4872 203.6806 15.18474091 51342
TIANMU-1 14             
1 58648U 23205D   24333.10973524  .00010985  00000+0  53524-3 0  9993
2 58648  97.3850 353.8761 0010152 160.8046 199.3573 15.18467951 51349
TIANMU-1 19             
1 58660U 23208A   24333.16256422  .00016133  00000+0  76927-3 0  9990
2 58660  97.4204  81.9570 0007037 146.1344 214.0342 15.19151947 51020
TIANMU-1 20             
1 58661U 23208B   24333.12098224  .00016380  00000+0  75337-3 0  9999
2 58661  97.4138  81.9948 0009560 159.0770 201.0858 15.20378618 51043
TIANMU-1 21             
1 58662U 23208C   24333.13062561  .00018397  00000+0  81378-3 0  9998
2 58662  97.4175  82.6092 0009169 158.5850 201.5772 15.21696256 51076
TIANMU-1 22             
1 58663U 23208D   24333.16322668  .00014890  00000+0  70564-3 0  9998
2 58663  97.4196  82.0455 0005085 165.3508 194.7875 15.19395742 51032
TIANMU-1 15             
1 58700U 24004A   24332.90782849  .00013180  00000+0  64148-3 0  9999
2 58700  97.4598 151.4023 0008593 188.0254 172.0844 15.18476995 49580
TIANMU-1 16             
1 58701U 24004B   24333.15269981  .00012851  00000+0  62677-3 0  9994
2 58701  97.4527 151.3725 0008704 189.4421 170.6651 15.18408143 49621
TIANMU-1 17             
1 58702U 24004C   24333.13851609  .00012773  00000+0  62192-3 0  9992
2 58702  97.4566 151.5767 0007149 184.0660 176.0517 15.18480248 49617
TIANMU-1 18             
1 58703U 24004D   24333.12124558  .00013295  00000+0  64719-3 0  9995
2 58703  97.4584 151.6676 0006961 176.1379 183.9910 15.18480532 49618
INSAT-3DS               
1 58990U 24033A   24332.90813375 -.00000131  00000+0  00000+0 0  9997
2 58990   0.0439 269.1784 0001468 344.2811 222.9012  1.00272002 41397
METEOR-M2 4             
1 59051U 24039A   24333.12119163  .00000194  00000+0  10662-3 0  9998
2 59051  98.6222 291.1641 0007437  18.0616 342.0825 14.22306628 38793
GOES 19                 
1 60133U 24119A   24331.85363553 -.00000161  00000+0  00000+0 0  9998
2 60133   0.0108  76.6733 0000669 242.1911 325.2754  1.00270993  1276
